YAOGAN-43 01D           
1 60461U 24148D   26068.43560480  .00010676  00000+0  37766-3 0  9999
2 60461  35.0010  61.7102 0002556 326.2473  33.8080 15.28369377 87008
STARLINK-34095          
1 63809U 25092F   26068.32148483  .00028491  00000+0  10401-2 0  9990
2 63809  42.9993 175.0353 0000772 247.0553 113.0217 15.27604081 48551
